[{"OBJECT_NAME":"GPS BIIF-11 (PRN 10)","OBJECT_ID":"2015-062A","EPOCH":"2026-06-26T06:02:09.834144","MEAN_MOTION":2.00567152,"ECCENTRICITY":0.011217,"INCLINATION":56.9655,"RA_OF_ASC_NODE":30.4619,"ARG_OF_PERICENTER":231.006,"MEAN_ANOMALY":128.0428,"EPHEMERIS_TYPE":0,"CLASSIFICATION_TYPE":"U","NORAD_CAT_ID":41019,"ELEMENT_SET_NO":999,"REV_AT_EPOCH":7801,"BSTAR":0,"MEAN_MOTION_DOT":-8.3e-7,"MEAN_MOTION_DDOT":0},{"OBJECT_NAME":"GSAT-15 (GAGAN/PRN 139)","OBJECT_ID":"2015-065A","EPOCH":"2026-06-26T17:25:38.477856","MEAN_MOTION":1.00271129,"ECCENTRICITY":0.0004604,"INCLINATION":0.0491,"RA_OF_ASC_NODE":263.9444,"ARG_OF_PERICENTER":172.5714,"MEAN_ANOMALY":193.2618,"EPHEMERIS_TYPE":0,"CLASSIFICATION_TYPE":"U","NORAD_CAT_ID":41028,"ELEMENT_SET_NO":999,"REV_AT_EPOCH":3889,"BSTAR":0,"MEAN_MOTION_DOT":-2.46e-6,"MEAN_MOTION_DDOT":0},{"OBJECT_NAME":"GSAT0209 (GALILEO 12)","OBJECT_ID":"2015-079A","EPOCH":"2026-06-25T06:01:25.527360","MEAN_MOTION":1.70473764,"ECCENTRICITY":0.00050472,"INCLINATION":55.832,"RA_OF_ASC_NODE":101.0407,"ARG_OF_PERICENTER":349.0522,"MEAN_ANOMALY":10.9102,"EPHEMERIS_TYPE":0,"CLASSIFICATION_TYPE":"U","NORAD_CAT_ID":41174,"ELEMENT_SET_NO":999,"REV_AT_EPOCH":6491,"BSTAR":0,"MEAN_MOTION_DOT":-3.8e-7,"MEAN_MOTION_DDOT":0},{"OBJECT_NAME":"GSAT0208 (GALILEO 11)","OBJECT_ID":"2015-079B","EPOCH":"2026-06-22T12:55:14.356704","MEAN_MOTION":1.70473694,"ECCENTRICITY":0.00048395,"INCLINATION":55.829,"RA_OF_ASC_NODE":101.1119,"ARG_OF_PERICENTER":343.6998,"MEAN_ANOMALY":16.2634,"EPHEMERIS_TYPE":0,"CLASSIFICATION_TYPE":"U","NORAD_CAT_ID":41175,"ELEMENT_SET_NO":999,"REV_AT_EPOCH":6528,"BSTAR":0,"MEAN_MOTION_DOT":-2.7e-7,"MEAN_MOTION_DDOT":0},{"OBJECT_NAME":"IRNSS-1E","OBJECT_ID":"2016-003A","EPOCH":"2026-06-25T14:21:38.812032","MEAN_MOTION":1.00274592,"ECCENTRICITY":0.00190622,"INCLINATION":33.2517,"RA_OF_ASC_NODE":59.6282,"ARG_OF_PERICENTER":179.113,"MEAN_ANOMALY":2.2203,"EPHEMERIS_TYPE":0,"CLASSIFICATION_TYPE":"U","NORAD_CAT_ID":41241,"ELEMENT_SET_NO":999,"REV_AT_EPOCH":3816,"BSTAR":0,"MEAN_MOTION_DOT":-3.19e-6,"MEAN_MOTION_DDOT":0},{"OBJECT_NAME":"GPS BIIF-12 (PRN 32)","OBJECT_ID":"2016-007A","EPOCH":"2026-06-26T08:14:02.456736","MEAN_MOTION":2.00551441,"ECCENTRICITY":0.0095637,"INCLINATION":55.5293,"RA_OF_ASC_NODE":89.0967,"ARG_OF_PERICENTER":247.1706,"MEAN_ANOMALY":111.8201,"EPHEMERIS_TYPE":0,"CLASSIFICATION_TYPE":"U","NORAD_CAT_ID":41328,"ELEMENT_SET_NO":999,"REV_AT_EPOCH":7602,"BSTAR":0,"MEAN_MOTION_DOT":-6.6e-7,"MEAN_MOTION_DDOT":0},{"OBJECT_NAME":"COSMOS 2514 (751)","OBJECT_ID":"2016-008A","EPOCH":"2026-06-26T16:05:19.123008","MEAN_MOTION":2.13102793,"ECCENTRICITY":0.0011642,"INCLINATION":65.0155,"RA_OF_ASC_NODE":312.6811,"ARG_OF_PERICENTER":199.0102,"MEAN_ANOMALY":160.9356,"EPHEMERIS_TYPE":0,"CLASSIFICATION_TYPE":"U","NORAD_CAT_ID":41330,"ELEMENT_SET_NO":999,"REV_AT_EPOCH":8082,"BSTAR":0,"MEAN_MOTION_DOT":-8.4e-7,"MEAN_MOTION_DDOT":0},{"OBJECT_NAME":"BEIDOU-2 IGSO-6 (C13)","OBJECT_ID":"2016-021A","EPOCH":"2026-06-26T02:38:38.671584","MEAN_MOTION":1.00258926,"ECCENTRICITY":0.0057558,"INCLINATION":60.2385,"RA_OF_ASC_NODE":37.9495,"ARG_OF_PERICENTER":231.0163,"MEAN_ANOMALY":137.2672,"EPHEMERIS_TYPE":0,"CLASSIFICATION_TYPE":"U","NORAD_CAT_ID":41434,"ELEMENT_SET_NO":999,"REV_AT_EPOCH":3757,"BSTAR":0,"MEAN_MOTION_DOT":-1.45e-6,"MEAN_MOTION_DDOT":0},{"OBJECT_NAME":"IRNSS-1G","OBJECT_ID":"2016-027A","EPOCH":"2026-06-25T08:32:51.614016","MEAN_MOTION":1.0027658,"ECCENTRICITY":0.0006269,"INCLINATION":5.2158,"RA_OF_ASC_NODE":97.2878,"ARG_OF_PERICENTER":2.9813,"MEAN_ANOMALY":70.7125,"EPHEMERIS_TYPE":0,"CLASSIFICATION_TYPE":"U","NORAD_CAT_ID":41469,"ELEMENT_SET_NO":999,"REV_AT_EPOCH":3726,"BSTAR":0,"MEAN_MOTION_DOT":-3.29e-6,"MEAN_MOTION_DDOT":0},{"OBJECT_NAME":"GSAT0211 (GALILEO 14)","OBJECT_ID":"2016-030A","EPOCH":"2026-06-23T20:02:59.831808","MEAN_MOTION":1.70474023,"ECCENTRICITY":0.00030565,"INCLINATION":55.0937,"RA_OF_ASC_NODE":221.5119,"ARG_OF_PERICENTER":321.3377,"MEAN_ANOMALY":38.7209,"EPHEMERIS_TYPE":0,"CLASSIFICATION_TYPE":"U","NORAD_CAT_ID":41549,"ELEMENT_SET_NO":999,"REV_AT_EPOCH":6278,"BSTAR":0,"MEAN_MOTION_DOT":4.6e-7,"MEAN_MOTION_DDOT":0},{"OBJECT_NAME":"GSAT0210 (GALILEO 13)","OBJECT_ID":"2016-030B","EPOCH":"2026-06-25T06:22:49.933344","MEAN_MOTION":1.70473937,"ECCENTRICITY":0.0008659,"INCLINATION":55.0912,"RA_OF_ASC_NODE":221.4705,"ARG_OF_PERICENTER":257.5264,"MEAN_ANOMALY":102.4641,"EPHEMERIS_TYPE":0,"CLASSIFICATION_TYPE":"U","NORAD_CAT_ID":41550,"ELEMENT_SET_NO":999,"REV_AT_EPOCH":6280,"BSTAR":0,"MEAN_MOTION_DOT":5.6e-7,"MEAN_MOTION_DDOT":0},{"OBJECT_NAME":"BEIDOU-2 G7 (C03)","OBJECT_ID":"2016-037A","EPOCH":"2026-06-26T18:12:44.409312","MEAN_MOTION":1.00272479,"ECCENTRICITY":0.0006836,"INCLINATION":1.744,"RA_OF_ASC_NODE":69.4136,"ARG_OF_PERICENTER":1.2173,"MEAN_ANOMALY":227.987,"EPHEMERIS_TYPE":0,"CLASSIFICATION_TYPE":"U","NORAD_CAT_ID":41586,"ELEMENT_SET_NO":999,"REV_AT_EPOCH":698,"BSTAR":0,"MEAN_MOTION_DOT":-3.43e-6,"MEAN_MOTION_DDOT":0},{"OBJECT_NAME":"EUTELSAT 117 WEST B (WAAS/PRN 131)","OBJECT_ID":"2016-038B","EPOCH":"2026-06-26T15:25:08.061888","MEAN_MOTION":1.00269678,"ECCENTRICITY":2.81e-5,"INCLINATION":0.0052,"RA_OF_ASC_NODE":198.023,"ARG_OF_PERICENTER":90.3505,"MEAN_ANOMALY":100.6951,"EPHEMERIS_TYPE":0,"CLASSIFICATION_TYPE":"U","NORAD_CAT_ID":41589,"ELEMENT_SET_NO":999,"REV_AT_EPOCH":3675,"BSTAR":0,"MEAN_MOTION_DOT":0,"MEAN_MOTION_DDOT":0},{"OBJECT_NAME":"GSAT0207 (GALILEO 15)","OBJECT_ID":"2016-069A","EPOCH":"2026-06-26T17:13:02.064864","MEAN_MOTION":1.704737,"ECCENTRICITY":0.0005007,"INCLINATION":55.5042,"RA_OF_ASC_NODE":100.8225,"ARG_OF_PERICENTER":333.0982,"MEAN_ANOMALY":26.85,"EPHEMERIS_TYPE":0,"CLASSIFICATION_TYPE":"U","NORAD_CAT_ID":41859,"ELEMENT_SET_NO":999,"REV_AT_EPOCH":5956,"BSTAR":0,"MEAN_MOTION_DOT":-3.8e-7,"MEAN_MOTION_DDOT":0},{"OBJECT_NAME":"GSAT0212 (GALILEO 16)","OBJECT_ID":"2016-069B","EPOCH":"2026-06-25T23:37:18.081120","MEAN_MOTION":1.70473828,"ECCENTRICITY":0.0004404,"INCLINATION":55.5014,"RA_OF_ASC_NODE":100.8378,"ARG_OF_PERICENTER":10.9452,"MEAN_ANOMALY":349.0377,"EPHEMERIS_TYPE":0,"CLASSIFICATION_TYPE":"U","NORAD_CAT_ID":41860,"ELEMENT_SET_NO":999,"REV_AT_EPOCH":5980,"BSTAR":0,"MEAN_MOTION_DOT":-3.9e-7,"MEAN_MOTION_DDOT":0},{"OBJECT_NAME":"GSAT0213 (GALILEO 17)","OBJECT_ID":"2016-069C","EPOCH":"2026-06-25T04:16:41.547360","MEAN_MOTION":1.70474298,"ECCENTRICITY":0.00046296,"INCLINATION":55.5032,"RA_OF_ASC_NODE":100.8681,"ARG_OF_PERICENTER":315.3374,"MEAN_ANOMALY":44.5989,"EPHEMERIS_TYPE":0,"CLASSIFICATION_TYPE":"U","NORAD_CAT_ID":41861,"ELEMENT_SET_NO":999,"REV_AT_EPOCH":5965,"BSTAR":0,"MEAN_MOTION_DOT":-3.9e-7,"MEAN_MOTION_DDOT":0},{"OBJECT_NAME":"GSAT0214 (GALILEO 18)","OBJECT_ID":"2016-069D","EPOCH":"2026-06-21T19:19:10.755840","MEAN_MOTION":1.7047356,"ECCENTRICITY":0.00038497,"INCLINATION":55.5,"RA_OF_ASC_NODE":100.954,"ARG_OF_PERICENTER":321.2487,"MEAN_ANOMALY":38.7039,"EPHEMERIS_TYPE":0,"CLASSIFICATION_TYPE":"U","NORAD_CAT_ID":41862,"ELEMENT_SET_NO":999,"REV_AT_EPOCH":5972,"BSTAR":0,"MEAN_MOTION_DOT":-2.3e-7,"MEAN_MOTION_DDOT":0}]
