GPS BIIF-11 (PRN 10)    
1 41019U 15062A   26177.25150271 -.00000083  00000+0  00000+0 0  9995
2 41019  56.9655  30.4619 0112170 231.0060 128.0428  2.00567152 78019
GSAT-15 (GAGAN/PRN 139) 
1 41028U 15065A   26177.72613979 -.00000246  00000+0  00000+0 0  9990
2 41028   0.0491 263.9444 0004604 172.5714 193.2618  1.00271129 38895
GSAT0209 (GALILEO 12)   
1 41174U 15079A   26176.25098990 -.00000038  00000+0  00000+0 0  9993
2 41174  55.8320 101.0407 0005047 349.0522  10.9102  1.70473764 64918
GSAT0208 (GALILEO 11)   
1 41175U 15079B   26173.53836061 -.00000027  00000+0  00000+0 0  9999
2 41175  55.8290 101.1119 0004839 343.6998  16.2634  1.70473694 65283
IRNSS-1E                
1 41241U 16003A   26176.59836588 -.00000319  00000+0  00000+0 0  9998
2 41241  33.2517  59.6282 0019062 179.1130   2.2203  1.00274592 38164
GPS BIIF-12 (PRN 32)    
1 41328U 16007A   26177.34308399 -.00000066  00000+0  00000+0 0  9995
2 41328  55.5293  89.0967 0095637 247.1706 111.8201  2.00551441 76026
COSMOS 2514 (751)       
1 41330U 16008A   26177.67036022 -.00000084  00000+0  00000+0 0  9996
2 41330  65.0155 312.6811 0011642 199.0102 160.9356  2.13102793 80829
BEIDOU-2 IGSO-6 (C13)   
1 41434U 16021A   26177.11016981 -.00000145  00000+0  00000+0 0  9995
2 41434  60.2385  37.9495 0057558 231.0163 137.2672  1.00258926 37578
IRNSS-1G                
1 41469U 16027A   26176.35615294 -.00000329  00000+0  00000+0 0  9990
2 41469   5.2158  97.2878 0006269   2.9813  70.7125  1.00276580 37263
GSAT0211 (GALILEO 14)   
1 41549U 16030A   26174.83541472  .00000046  00000+0  00000+0 0  9995
2 41549  55.0937 221.5119 0003056 321.3377  38.7209  1.70474023 62785
GSAT0210 (GALILEO 13)   
1 41550U 16030B   26176.26585571  .00000056  00000+0  00000+0 0  9995
2 41550  55.0912 221.4705 0008659 257.5264 102.4641  1.70473937 62804
BEIDOU-2 G7 (C03)       
1 41586U 16037A   26177.75884733 -.00000343  00000+0  00000+0 0  9998
2 41586   1.7440  69.4136 0006836   1.2173 227.9870  1.00272479  6988
EUTELSAT 117 WEST B (W*)
1 41589U 16038B   26177.64245442  .00000000  00000+0  00000+0 0  9997
2 41589   0.0052 198.0230 0000281  90.3505 100.6951  1.00269678 36754
GSAT0207 (GALILEO 15)   
1 41859U 16069A   26177.71738501 -.00000038  00000+0  00000+0 0  9994
2 41859  55.5042 100.8225 0005007 333.0982  26.8500  1.70473700 59563
GSAT0212 (GALILEO 16)   
1 41860U 16069B   26176.98423705 -.00000039  00000+0  00000+0 0  9992
2 41860  55.5014 100.8378 0004404  10.9452 349.0377  1.70473828 59806
GSAT0213 (GALILEO 17)   
1 41861U 16069C   26176.17825865 -.00000039  00000+0  00000+0 0  9997
2 41861  55.5032 100.8681 0004629 315.3374  44.5989  1.70474298 59659
GSAT0214 (GALILEO 18)   
1 41862U 16069D   26172.80498560 -.00000023  00000+0  00000+0 0  9995
2 41862  55.5000 100.9540 0003849 321.2487  38.7039  1.70473560 59724
